CCSDS_OMM_VERS = 2.0
CREATION_DATE  = 
ORIGINATOR     = 

OBJECT_NAME    = HULIANWANG DIGUI-144
OBJECT_ID      = 2026-007H
CENTER_NAME    = EARTH
REF_FRAME      = TEME
TIME_SYSTEM    = UTC
MEAN_ELEMENT_THEORY = SGP/SGP4

EPOCH          = 2026-02-03T01:00:30.530592
MEAN_MOTION    = 13.80966414
ECCENTRICITY   = .00005624
INCLINATION    = 49.9801
RA_OF_ASC_NODE = 213.4402
ARG_OF_PERICENTER = 349.6651
MEAN_ANOMALY   = 10.4232

EPHEMERIS_TYPE = 0
CLASSIFICATION_TYPE = U
NORAD_CAT_ID   = 67442
ELEMENT_SET_NO = 999
REV_AT_EPOCH   = 284
BSTAR          = .12010639E-3
MEAN_MOTION_DOT = -.15E-6
MEAN_MOTION_DDOT = 0

CCSDS_OMM_VERS = 2.0
CREATION_DATE  = 
ORIGINATOR     = 

OBJECT_NAME    = HULIANWANG DIGUI-145
OBJECT_ID      = 2026-007J
CENTER_NAME    = EARTH
REF_FRAME      = TEME
TIME_SYSTEM    = UTC
MEAN_ELEMENT_THEORY = SGP/SGP4

EPOCH          = 2026-02-03T04:24:19.339488
MEAN_MOTION    = 13.81052153
ECCENTRICITY   = .00009946
INCLINATION    = 50.0094
RA_OF_ASC_NODE = 212.7889
ARG_OF_PERICENTER = 266.3471
MEAN_ANOMALY   = 93.7310

EPHEMERIS_TYPE = 0
CLASSIFICATION_TYPE = U
NORAD_CAT_ID   = 67443
ELEMENT_SET_NO = 999
REV_AT_EPOCH   = 286
BSTAR          = .13508165E-3
MEAN_MOTION_DOT = .1E-7
MEAN_MOTION_DDOT = 0

CCSDS_OMM_VERS = 2.0
CREATION_DATE  = 
ORIGINATOR     = 

OBJECT_NAME    = CZ-8A R/B
OBJECT_ID      = 2026-007K
CENTER_NAME    = EARTH
REF_FRAME      = TEME
TIME_SYSTEM    = UTC
MEAN_ELEMENT_THEORY = SGP/SGP4

EPOCH          = 2026-02-03T21:31:48.820512
MEAN_MOTION    = 14.13550903
ECCENTRICITY   = .0092188
INCLINATION    = 50.0084
RA_OF_ASC_NODE = 206.5251
ARG_OF_PERICENTER = 155.9453
MEAN_ANOMALY   = 204.5802

EPHEMERIS_TYPE = 0
CLASSIFICATION_TYPE = U
NORAD_CAT_ID   = 67444
ELEMENT_SET_NO = 999
REV_AT_EPOCH   = 300
BSTAR          = -.1637E-4
MEAN_MOTION_DOT = -.188E-5
MEAN_MOTION_DDOT = 0

CCSDS_OMM_VERS = 2.0
CREATION_DATE  = 
ORIGINATOR     = 

OBJECT_NAME    = STARLINK-36542
OBJECT_ID      = 2026-008A
CENTER_NAME    = EARTH
REF_FRAME      = TEME
TIME_SYSTEM    = UTC
MEAN_ELEMENT_THEORY = SGP/SGP4

EPOCH          = 2026-02-04T04:00:01.999584
MEAN_MOTION    = 15.64709688
ECCENTRICITY   = .000085
INCLINATION    = 42.9998
RA_OF_ASC_NODE = 37.0591
ARG_OF_PERICENTER = 260.7730
MEAN_ANOMALY   = 202.8426

EPHEMERIS_TYPE = 0
CLASSIFICATION_TYPE = U
NORAD_CAT_ID   = 67445
ELEMENT_SET_NO = 999
REV_AT_EPOCH   = 440
BSTAR          = -.24006E-1
MEAN_MOTION_DOT = -.2093917E-1
MEAN_MOTION_DDOT = 0

CCSDS_OMM_VERS = 2.0
CREATION_DATE  = 
ORIGINATOR     = 

OBJECT_NAME    = STARLINK-36539
OBJECT_ID      = 2026-008B
CENTER_NAME    = EARTH
REF_FRAME      = TEME
TIME_SYSTEM    = UTC
MEAN_ELEMENT_THEORY = SGP/SGP4

EPOCH          = 2026-02-04T04:00:01.999584
MEAN_MOTION    = 15.66628530
ECCENTRICITY   = .0000823
INCLINATION    = 42.9995
RA_OF_ASC_NODE = 37.0191
ARG_OF_PERICENTER = 266.2487
MEAN_ANOMALY   = 213.6491

EPHEMERIS_TYPE = 0
CLASSIFICATION_TYPE = U
NORAD_CAT_ID   = 67446
ELEMENT_SET_NO = 999
REV_AT_EPOCH   = 440
BSTAR          = -.2234E-1
MEAN_MOTION_DOT = -.2104921E-1
MEAN_MOTION_DDOT = 0

CCSDS_OMM_VERS = 2.0
CREATION_DATE  = 
ORIGINATOR     = 

OBJECT_NAME    = STARLINK-36440
OBJECT_ID      = 2026-008C
CENTER_NAME    = EARTH
REF_FRAME      = TEME
TIME_SYSTEM    = UTC
MEAN_ELEMENT_THEORY = SGP/SGP4

EPOCH          = 2026-02-04T03:21:55.540224
MEAN_MOTION    = 15.75111662
ECCENTRICITY   = .0001591
INCLINATION    = 42.9997
RA_OF_ASC_NODE = 37.1014
ARG_OF_PERICENTER = 282.3162
MEAN_ANOMALY   = 77.7529

EPHEMERIS_TYPE = 0
CLASSIFICATION_TYPE = U
NORAD_CAT_ID   = 67447
ELEMENT_SET_NO = 999
REV_AT_EPOCH   = 441
BSTAR          = .14345E-2
MEAN_MOTION_DOT = .226613E-2
MEAN_MOTION_DDOT = 0

CCSDS_OMM_VERS = 2.0
CREATION_DATE  = 
ORIGINATOR     = 

OBJECT_NAME    = STARLINK-36423
OBJECT_ID      = 2026-008D
CENTER_NAME    = EARTH
REF_FRAME      = TEME
TIME_SYSTEM    = UTC
MEAN_ELEMENT_THEORY = SGP/SGP4

EPOCH          = 2026-02-04T04:00:01.999584
MEAN_MOTION    = 15.62019021
ECCENTRICITY   = .0001003
INCLINATION    = 42.9997
RA_OF_ASC_NODE = 37.1067
ARG_OF_PERICENTER = 276.1773
MEAN_ANOMALY   = 167.9802

EPHEMERIS_TYPE = 0
CLASSIFICATION_TYPE = U
NORAD_CAT_ID   = 67448
ELEMENT_SET_NO = 999
REV_AT_EPOCH   = 440
BSTAR          = -.26727E-1
MEAN_MOTION_DOT = -.2094304E-1
MEAN_MOTION_DDOT = 0

CCSDS_OMM_VERS = 2.0
CREATION_DATE  = 
ORIGINATOR     = 

OBJECT_NAME    = STARLINK-36519
OBJECT_ID      = 2026-008E
CENTER_NAME    = EARTH
REF_FRAME      = TEME
TIME_SYSTEM    = UTC
MEAN_ELEMENT_THEORY = SGP/SGP4

EPOCH          = 2026-02-04T04:00:01.999584
MEAN_MOTION    = 15.72273175
ECCENTRICITY   = .0001115
INCLINATION    = 43.0002
RA_OF_ASC_NODE = 36.9404
ARG_OF_PERICENTER = 266.1410
MEAN_ANOMALY   = 244.8870

EPHEMERIS_TYPE = 0
CLASSIFICATION_TYPE = U
NORAD_CAT_ID   = 67449
ELEMENT_SET_NO = 999
REV_AT_EPOCH   = 440
BSTAR          = -.17579E-1
MEAN_MOTION_DOT = -.2100409E-1
MEAN_MOTION_DDOT = 0

CCSDS_OMM_VERS = 2.0
CREATION_DATE  = 
ORIGINATOR     = 

OBJECT_NAME    = STARLINK-36525
OBJECT_ID      = 2026-008F
CENTER_NAME    = EARTH
REF_FRAME      = TEME
TIME_SYSTEM    = UTC
MEAN_ELEMENT_THEORY = SGP/SGP4

EPOCH          = 2026-02-04T04:00:01.999584
MEAN_MOTION    = 15.64507805
ECCENTRICITY   = .0000861
INCLINATION    = 42.9997
RA_OF_ASC_NODE = 37.0384
ARG_OF_PERICENTER = 260.9115
MEAN_ANOMALY   = 210.5505

EPHEMERIS_TYPE = 0
CLASSIFICATION_TYPE = U
NORAD_CAT_ID   = 67450
ELEMENT_SET_NO = 999
REV_AT_EPOCH   = 440
BSTAR          = -.24304E-1
MEAN_MOTION_DOT = -.2101552E-1
MEAN_MOTION_DDOT = 0

CCSDS_OMM_VERS = 2.0
CREATION_DATE  = 
ORIGINATOR     = 

OBJECT_NAME    = STARLINK-36511
OBJECT_ID      = 2026-008G
CENTER_NAME    = EARTH
REF_FRAME      = TEME
TIME_SYSTEM    = UTC
MEAN_ELEMENT_THEORY = SGP/SGP4

EPOCH          = 2026-02-04T04:00:01.999584
MEAN_MOTION    = 15.62278188
ECCENTRICITY   = .0000856
INCLINATION    = 42.9998
RA_OF_ASC_NODE = 37.0859
ARG_OF_PERICENTER = 264.3249
MEAN_ANOMALY   = 188.2989

EPHEMERIS_TYPE = 0
CLASSIFICATION_TYPE = U
NORAD_CAT_ID   = 67451
ELEMENT_SET_NO = 999
REV_AT_EPOCH   = 440
BSTAR          = -.26423E-1
MEAN_MOTION_DOT = -.2091927E-1
MEAN_MOTION_DDOT = 0

CCSDS_OMM_VERS = 2.0
CREATION_DATE  = 
ORIGINATOR     = 

OBJECT_NAME    = STARLINK-36524
OBJECT_ID      = 2026-008H
CENTER_NAME    = EARTH
REF_FRAME      = TEME
TIME_SYSTEM    = UTC
MEAN_ELEMENT_THEORY = SGP/SGP4

EPOCH          = 2026-02-04T04:00:01.999584
MEAN_MOTION    = 15.65318136
ECCENTRICITY   = .0000824
INCLINATION    = 42.9997
RA_OF_ASC_NODE = 37.0124
ARG_OF_PERICENTER = 261.9784
MEAN_ANOMALY   = 219.8928

EPHEMERIS_TYPE = 0
CLASSIFICATION_TYPE = U
NORAD_CAT_ID   = 67452
ELEMENT_SET_NO = 999
REV_AT_EPOCH   = 440
BSTAR          = -.23532E-1
MEAN_MOTION_DOT = -.2102372E-1
MEAN_MOTION_DDOT = 0

CCSDS_OMM_VERS = 2.0
CREATION_DATE  = 
ORIGINATOR     = 

OBJECT_NAME    = STARLINK-36518
OBJECT_ID      = 2026-008J
CENTER_NAME    = EARTH
REF_FRAME      = TEME
TIME_SYSTEM    = UTC
MEAN_ELEMENT_THEORY = SGP/SGP4

EPOCH          = 2026-02-04T04:00:01.999584
MEAN_MOTION    = 15.68062131
ECCENTRICITY   = .0001208
INCLINATION    = 42.9994
RA_OF_ASC_NODE = 36.5974
ARG_OF_PERICENTER = 256.3450
MEAN_ANOMALY   = 28.6101

EPHEMERIS_TYPE = 0
CLASSIFICATION_TYPE = U
NORAD_CAT_ID   = 67453
ELEMENT_SET_NO = 999
REV_AT_EPOCH   = 442
BSTAR          = -.21108E-1
MEAN_MOTION_DOT = -.2109568E-1
MEAN_MOTION_DDOT = 0

