HULIANWANG DIGUI-144    
1 67442U 26007H   26034.04202003 -.00000015  00000+0  12011-3 0  9998
2 67442  49.9801 213.4402 0000562 349.6651  10.4232 13.80966414  2847
HULIANWANG DIGUI-145    
1 67443U 26007J   26034.18355717  .00000001  00000+0  13508-3 0  9991
2 67443  50.0094 212.7889 0000994 266.3471  93.7310 13.81052153  2860
CZ-8A R/B               
1 67444U 26007K   26034.89709283 -.00000188  00000+0 -16370-4 0  9990
2 67444  50.0084 206.5251 0092188 155.9453 204.5802 14.13550903  3000
STARLINK-36542          
1 67445U 26008A   26035.16668981 -.02093917  00000+0 -24006-1 0  9998
2 67445  42.9998  37.0591 0000850 260.7730 202.8426 15.64709688  4408
STARLINK-36539          
1 67446U 26008B   26035.16668981 -.02104921  00000+0 -22340-1 0  9996
2 67446  42.9995  37.0191 0000823 266.2487 213.6491 15.66628530  4402
STARLINK-36440          
1 67447U 26008C   26035.14022616  .00226613  00000+0  14345-2 0  9990
2 67447  42.9997  37.1014 0001591 282.3162  77.7529 15.75111662  4417
STARLINK-36423          
1 67448U 26008D   26035.16668981 -.02094304  00000+0 -26727-1 0  9994
2 67448  42.9997  37.1067 0001003 276.1773 167.9802 15.62019021  4400
STARLINK-36519          
1 67449U 26008E   26035.16668981 -.02100409  00000+0 -17579-1 0  9994
2 67449  43.0002  36.9404 0001115 266.1410 244.8870 15.72273175  4406
STARLINK-36525          
1 67450U 26008F   26035.16668981 -.02101552  00000+0 -24304-1 0  9990
2 67450  42.9997  37.0384 0000861 260.9115 210.5505 15.64507805  4405
STARLINK-36511          
1 67451U 26008G   26035.16668981 -.02091927  00000+0 -26423-1 0  9999
2 67451  42.9998  37.0859 0000856 264.3249 188.2989 15.62278188  4408
STARLINK-36524          
1 67452U 26008H   26035.16668981 -.02102372  00000+0 -23532-1 0  9995
2 67452  42.9997  37.0124 0000824 261.9784 219.8928 15.65318136  4400
STARLINK-36518          
1 67453U 26008J   26035.16668981 -.02109568  00000+0 -21108-1 0  9997
2 67453  42.9994  36.5974 0001208 256.3450  28.6101 15.68062131  4425
